{"type": "FeatureCollection", "features": [ {"type": "Feature", "properties": {"norad_id": 32289, "name": "YAOGAN-3", "group": "resource", "lat": -19.581565049064515, "lon": 29.6212085666122, "alt_km": 603.5870314778476, "timestamp": "2025-12-26T07:29:18.116272+00:00", "meta": {"OBJECT_NAME": "YAOGAN-3", "OBJECT_ID": "2007-055A", "EPOCH": "2025-12-25T23:31:04.221408", "MEAN_MOTION": 14.89920968, "ECCENTRICITY": 0.00012468, "INCLINATION": 97.8358, "RA_OF_ASC_NODE": 26.4842, "ARG_OF_PERICENTER": 85.8961, "MEAN_ANOMALY": 274.2399, "EPHEMERIS_TYPE": 0, "CLASSIFICATION_TYPE": "U", "NORAD_CAT_ID": 32289, "ELEMENT_SET_NO": 999, "REV_AT_EPOCH": 98006, "BSTAR": 0.0001541562, "MEAN_MOTION_DOT": 1.428e-05, "MEAN_MOTION_DDOT": 0}, "tle": {"line1": "1 32289U 07055A   25359.97990997  .00001428  00000+0  15416-3 0  9998", "line2": "2 32289  97.8358  26.4842 0001246  85.8961 274.2399 14.89920968980067"}}, "geometry": {"type": "Point", "coordinates": [29.6212085666122, -19.581565049064515]}}, {"type": "Feature", "properties": {"norad_id": 32376, "name": "COSMO-SKYMED 2", "group": "resource", "lat": -61.077903777200945, "lon": -13.08651048917911, "alt_km": 630.5460090503784, "timestamp": "2025-12-26T07:29:18.116284+00:00", "meta": {"OBJECT_NAME": "COSMO-SKYMED 2", "OBJECT_ID": "2007-059A", "EPOCH": "2025-12-25T23:55:07.467744", "MEAN_MOTION": 14.8215862, "ECCENTRICITY": 0.00013051, "INCLINATION": 97.8806, "RA_OF_ASC_NODE": 181.1208, "ARG_OF_PERICENTER": 83.119, "MEAN_ANOMALY": 277.0172, "EPHEMERIS_TYPE": 0, "CLASSIFICATION_TYPE": "U", "NORAD_CAT_ID": 32376, "ELEMENT_SET_NO": 999, "REV_AT_EPOCH": 97634, "BSTAR": 7.4781535e-05, "MEAN_MOTION_DOT": 5.43e-06, "MEAN_MOTION_DDOT": 0}, "tle": {"line1": "1 32376U 07059A   25359.99661421  .00000543  00000+0  74782-4 0  9997", "line2": "2 32376  97.8806 181.1208 0001305  83.1190 277.0172 14.82158620976345"}}, "geometry": {"type": "Point", "coordinates": [-13.08651048917911, -61.077903777200945]}}, {"type": "Feature", "properties": {"norad_id": 32382, "name": "RADARSAT-2", "group": "resource", "lat": 13.514171883943858, "lon": -173.2161692199257, "alt_km": 792.677110646122, "timestamp": "2025-12-26T07:29:18.116294+00:00", "meta": {"OBJECT_NAME": "RADARSAT-2", "OBJECT_ID": "2007-061A", "EPOCH": "2025-12-25T23:59:47.344992", "MEAN_MOTION": 14.29984851, "ECCENTRICITY": 0.00011168, "INCLINATION": 98.5798, "RA_OF_ASC_NODE": 4.3968, "ARG_OF_PERICENTER": 85.8212, "MEAN_ANOMALY": 274.3098, "EPHEMERIS_TYPE": 0, "CLASSIFICATION_TYPE": "U", "NORAD_CAT_ID": 32382, "ELEMENT_SET_NO": 999, "REV_AT_EPOCH": 94120, "BSTAR": -3.429198e-06, "MEAN_MOTION_DOT": -5.2e-07, "MEAN_MOTION_DDOT": 0}, "tle": {"line1": "1 32382U 07061A   25359.99985353 -.00000052  00000+0 -34292-5 0  9990", "line2": "2 32382  98.5798   4.3968 0001116  85.8212 274.3098 14.29984851941201"}}, "geometry": {"type": "Point", "coordinates": [-173.2161692199257, 13.514171883943858]}}, {"type": "Feature", "properties": {"norad_id": 32783, "name": "CARTOSAT-2A", "group": "resource", "lat": -44.59675350307368, "lon": -138.04868347885292, "alt_km": 639.9543783092431, "timestamp": "2025-12-26T07:29:18.116305+00:00", "meta": {"OBJECT_NAME": "CARTOSAT-2A", "OBJECT_ID": "2008-021A", "EPOCH": "2025-12-25T22:21:15.100128", "MEAN_MOTION": 14.78954189, "ECCENTRICITY": 0.00109187, "INCLINATION": 97.7908, "RA_OF_ASC_NODE": 49.3412, "ARG_OF_PERICENTER": 320.8013, "MEAN_ANOMALY": 39.2407, "EPHEMERIS_TYPE": 0, "CLASSIFICATION_TYPE": "U", "NORAD_CAT_ID": 32783, "ELEMENT_SET_NO": 999, "REV_AT_EPOCH": 95319, "BSTAR": 8.0991262e-05, "MEAN_MOTION_DOT": 5.48e-06, "MEAN_MOTION_DDOT": 0}, "tle": {"line1": "1 32783U 08021A   25359.93142477  .00000548  00000+0  80991-4 0  9992", "line2": "2 32783  97.7908  49.3412 0010918 320.8013  39.2407 14.78954189953192"}}, "geometry": {"type": "Point", "coordinates": [-138.04868347885292, -44.59675350307368]}}, {"type": "Feature", "properties": {"norad_id": 33320, "name": "HUANJING 1A (HJ-1A)", "group": "resource", "lat": -51.203647036335575, "lon": -2.3248061868702337, "alt_km": 615.6030727538491, "timestamp": "2025-12-26T07:29:18.116315+00:00", "meta": {"OBJECT_NAME": "HUANJING 1A (HJ-1A)", "OBJECT_ID": "2008-041A", "EPOCH": "2025-12-25T23:37:35.715360", "MEAN_MOTION": 14.83433678, "ECCENTRICITY": 0.00191297, "INCLINATION": 97.6552, "RA_OF_ASC_NODE": 347.73, "ARG_OF_PERICENTER": 351.9535, "MEAN_ANOMALY": 8.137, "EPHEMERIS_TYPE": 0, "CLASSIFICATION_TYPE": "U", "NORAD_CAT_ID": 33320, "ELEMENT_SET_NO": 999, "REV_AT_EPOCH": 93272, "BSTAR": 0.00018524386, "MEAN_MOTION_DOT": 1.474e-05, "MEAN_MOTION_DDOT": 0}, "tle": {"line1": "1 33320U 08041A   25359.98444115  .00001474  00000+0  18524-3 0  9992", "line2": "2 33320  97.6552 347.7300 0019129 351.9535   8.1370 14.83433678932723"}}, "geometry": {"type": "Point", "coordinates": [-2.3248061868702337, -51.203647036335575]}}, {"type": "Feature", "properties": {"norad_id": 33321, "name": "HUANJING 1B (HJ-1B)", "group": "resource", "lat": 37.75565720186808, "lon": 177.67291435072607, "alt_km": 626.1009553318754, "timestamp": "2025-12-26T07:29:18.116326+00:00", "meta": {"OBJECT_NAME": "HUANJING 1B (HJ-1B)", "OBJECT_ID": "2008-041B", "EPOCH": "2025-12-25T22:45:23.995296", "MEAN_MOTION": 14.82857109, "ECCENTRICITY": 0.0037654, "INCLINATION": 97.6409, "RA_OF_ASC_NODE": 351.3576, "ARG_OF_PERICENTER": 33.9078, "MEAN_ANOMALY": 326.4532, "EPHEMERIS_TYPE": 0, "CLASSIFICATION_TYPE": "U", "NORAD_CAT_ID": 33321, "ELEMENT_SET_NO": 999, "REV_AT_EPOCH": 93273, "BSTAR": 0.00023111722, "MEAN_MOTION_DOT": 1.843e-05, "MEAN_MOTION_DDOT": 0}, "tle": {"line1": "1 33321U 08041B   25359.94819439  .00001843  00000+0  23112-3 0  9993", "line2": "2 33321  97.6409 351.3576 0037654  33.9078 326.4532 14.82857109932738"}}, "geometry": {"type": "Point", "coordinates": [177.67291435072607, 37.75565720186808]}}, {"type": "Feature", "properties": {"norad_id": 33331, "name": "GEOEYE 1", "group": "resource", "lat": -35.21422495545368, "lon": 77.2065947401959, "alt_km": 684.543621588009, "timestamp": "2025-12-26T07:29:18.116336+00:00", "meta": {"OBJECT_NAME": "GEOEYE 1", "OBJECT_ID": "2008-042A", "EPOCH": "2025-12-25T21:48:48.991104", "MEAN_MOTION": 14.6471745, "ECCENTRICITY": 0.00030372, "INCLINATION": 98.1236, "RA_OF_ASC_NODE": 71.0227, "ARG_OF_PERICENTER": 227.9687, "MEAN_ANOMALY": 132.1257, "EPHEMERIS_TYPE": 0, "CLASSIFICATION_TYPE": "U", "NORAD_CAT_ID": 33331, "ELEMENT_SET_NO": 999, "REV_AT_EPOCH": 92478, "BSTAR": 0.00011926981, "MEAN_MOTION_DOT": 5.87e-06, "MEAN_MOTION_DDOT": 0}, "tle": {"line1": "1 33331U 08042A   25359.90890036  .00000587  00000+0  11927-3 0  9998", "line2": "2 33331  98.1236  71.0227 0003037 227.9687 132.1257 14.64717450924787"}}, "geometry": {"type": "Point", "coordinates": [77.2065947401959, -35.21422495545368]}}, {"type": "Feature", "properties": {"norad_id": 33396, "name": "THEOS", "group": "resource", "lat": 15.617194500869424, "lon": -119.58039542499994, "alt_km": 825.4293530286541, "timestamp": "2025-12-26T07:29:18.116347+00:00", "meta": {"OBJECT_NAME": "THEOS", "OBJECT_ID": "2008-049A", "EPOCH": "2025-12-25T23:57:15.721632", "MEAN_MOTION": 14.20099498, "ECCENTRICITY": 0.0001196, "INCLINATION": 98.5844, "RA_OF_ASC_NODE": 57.6951, "ARG_OF_PERICENTER": 93.2528, "MEAN_ANOMALY": 266.8786, "EPHEMERIS_TYPE": 0, "CLASSIFICATION_TYPE": "U", "NORAD_CAT_ID": 33396, "ELEMENT_SET_NO": 999, "REV_AT_EPOCH": 89338, "BSTAR": 8.646907e-05, "MEAN_MOTION_DOT": 1.42e-06, "MEAN_MOTION_DDOT": 0}, "tle": {"line1": "1 33396U 08049A   25359.99809863  .00000142  00000+0  86469-4 0  9994", "line2": "2 33396  98.5844  57.6951 0001196  93.2528 266.8786 14.20099498893383"}}, "geometry": {"type": "Point", "coordinates": [-119.58039542499994, 15.617194500869424]}}, {"type": "Feature", "properties": {"norad_id": 33412, "name": "COSMO-SKYMED 3", "group": "resource", "lat": 81.4716983359653, "lon": 97.78216570246234, "alt_km": 532.8209161014074, "timestamp": "2025-12-26T07:29:18.116358+00:00", "meta": {"OBJECT_NAME": "COSMO-SKYMED 3", "OBJECT_ID": "2008-054A", "EPOCH": "2025-12-25T21:30:15.993216", "MEAN_MOTION": 15.05470263, "ECCENTRICITY": 0.00171253, "INCLINATION": 97.8451, "RA_OF_ASC_NODE": 210.5108, "ARG_OF_PERICENTER": 129.2959, "MEAN_ANOMALY": 230.9789, "EPHEMERIS_TYPE": 0, "CLASSIFICATION_TYPE": "U", "NORAD_CAT_ID": 33412, "ELEMENT_SET_NO": 999, "REV_AT_EPOCH": 93085, "BSTAR": 0.00046757979, "MEAN_MOTION_DOT": 6.678e-05, "MEAN_MOTION_DDOT": 0}, "tle": {"line1": "1 33412U 08054A   25359.89601844  .00006678  00000+0  46758-3 0  9993", "line2": "2 33412  97.8451 210.5108 0017125 129.2959 230.9789 15.05470263930855"}}, "geometry": {"type": "Point", "coordinates": [97.78216570246234, 81.4716983359653]}}, {"type": "Feature", "properties": {"norad_id": 33446, "name": "YAOGAN-4", "group": "resource", "lat": 46.07640873729673, "lon": -78.03138405440347, "alt_km": 622.7553070685099, "timestamp": "2025-12-26T07:29:18.116368+00:00", "meta": {"OBJECT_NAME": "YAOGAN-4", "OBJECT_ID": "2008-061A", "EPOCH": "2025-12-25T18:19:17.173344", "MEAN_MOTION": 14.8271976, "ECCENTRICITY": 0.00129661, "INCLINATION": 97.9198, "RA_OF_ASC_NODE": 289.7359, "ARG_OF_PERICENTER": 277.0684, "MEAN_ANOMALY": 82.9055, "EPHEMERIS_TYPE": 0, "CLASSIFICATION_TYPE": "U", "NORAD_CAT_ID": 33446, "ELEMENT_SET_NO": 999, "REV_AT_EPOCH": 91996, "BSTAR": 0.00018510552, "MEAN_MOTION_DOT": 1.442e-05, "MEAN_MOTION_DDOT": 0}, "tle": {"line1": "1 33446U 08061A   25359.76339321  .00001442  00000+0  18511-3 0  9992", "line2": "2 33446  97.9198 289.7359 0012966 277.0684  82.9055 14.82719760919964"}}, "geometry": {"type": "Point", "coordinates": [-78.03138405440347, 46.07640873729673]}}]}